[{"OBJECT_NAME":"ONEWEB-0364","OBJECT_ID":"2021-090M","EPOCH":"2026-03-09T15:47:38.419584","MEAN_MOTION":13.20770517,"ECCENTRICITY":0.00015086,"INCLINATION":87.9158,"RA_OF_ASC_NODE":294.3265,"ARG_OF_PERICENTER":82.8266,"MEAN_ANOMALY":277.3039,"EPHEMERIS_TYPE":0,"CLASSIFICATION_TYPE":"U","NORAD_CAT_ID":49290,"ELEMENT_SET_NO":999,"REV_AT_EPOCH":21830,"BSTAR":-0.00029472957,"MEAN_MOTION_DOT":-1.07e-6,"MEAN_MOTION_DDOT":0},{"OBJECT_NAME":"SL-14 DEB","OBJECT_ID":"1991-056CJ","EPOCH":"2026-03-09T08:37:41.604384","MEAN_MOTION":13.22373927,"ECCENTRICITY":0.0039311,"INCLINATION":82.5888,"RA_OF_ASC_NODE":206.0663,"ARG_OF_PERICENTER":196.4077,"MEAN_ANOMALY":163.5779,"EPHEMERIS_TYPE":0,"CLASSIFICATION_TYPE":"U","NORAD_CAT_ID":45350,"ELEMENT_SET_NO":999,"REV_AT_EPOCH":29262,"BSTAR":0.0015036657,"MEAN_MOTION_DOT":6.41e-6,"MEAN_MOTION_DDOT":0}]
